CTC1_L_00588007-03
1 10062U 23306CF  26075.70039352  .00000000  00000+0  00000-0 0  9991
2 10062  50.0000 180.0000 0000000   0.0000 144.0000  6.30405269    10
CTC1_L_00588007-04
1 10063U 22660ZY  26075.70039352  .00000000  00000+0  00000-0 0  9994
2 10063  50.0000 180.0000 0000000   0.0000 180.0000  6.30405269    11
CTC1_L_00588007-05
1 10064U 25206ZT  26075.70039352  .00000000  00000+0  00000-0 0  9994
2 10064  50.0000 180.0000 0000000   0.0000 216.0000  6.30405269    12
CTC1_L_00588007-06
1 10065U 23761QQ  26075.70039352  .00000000  00000+0  00000-0 0  9999
2 10065  50.0000 180.0000 0000000   0.0000 252.0000  6.30405269    13
CTC1_L_00588007-07
1 10066U 22706II  26075.70039352  .00000000  00000+0  00000-0 0  9998
2 10066  50.0000 180.0000 0000000   0.0000 288.0000  6.30405269    13
CTC1_L_00588007-08
1 10067U 25814UZ  26075.70039352  .00000000  00000+0  00000-0 0  9992
2 10067  50.0000 180.0000 0000000   0.0000 324.0000  6.30405269    15
CTC1_L_00588007-09
1 10068U 24883OS  26075.70039352  .00000000  00000+0  00000-0 0  9998
2 10068  50.0000 180.0000 0000000   0.0000   0.0000  6.30405269    17
CTC1_L_00588007-10
1 10069U 26465CO  26075.70039352  .00000000  00000+0  00000-0 0  9997
2 10069  50.0000 180.0000 0000000   0.0000  36.0000  6.30405269    17
CTC1_L_00588008-01
1 10070U 26110ET  26075.70039352  .00000000  00000+0  00000-0 0  9996
2 10070  50.0000 210.0000 0000000   0.0000  84.0000  6.30405269    16
CTC1_L_00588008-02
1 10071U 22417NJ  26075.70039352  .00000000  00000+0  00000-0 0  9993
2 10071  50.0000 210.0000 0000000   0.0000 120.0000  6.30405269    18
CTC1_L_00588008-03
1 10072U 23776OV  26075.70039352  .00000000  00000+0  00000-0 0  9993
2 10072  50.0000 210.0000 0000000   0.0000 156.0000  6.30405269    18
CTC1_L_00588008-04
1 10073U 23321IY  26075.70039352  .00000000  00000+0  00000-0 0  9990
2 10073  50.0000 210.0000 0000000   0.0000 192.0000  6.30405269    19
CTC1_L_00588008-05
1 10074U 24304BK  26075.70039352  .00000000  00000+0  00000-0 0  9993
2 10074  50.0000 210.0000 0000000   0.0000 228.0000  6.30405269    10
CTC1_L_00588008-06
1 10075U 24979JP  26075.70039352  .00000000  00000+0  00000-0 0  9992
2 10075  50.0000 210.0000 0000000   0.0000 264.0000  6.30405269    11
CTC1_L_00588008-07
1 10076U 23187PH  26075.70039352  .00000000  00000+0  00000-0 0  9993
2 10076  50.0000 210.0000 0000000   0.0000 300.0000  6.30405269    13
CTC1_L_00588008-08
1 10077U 22570TV  26075.70039352  .00000000  00000+0  00000-0 0  9999
2 10077  50.0000 210.0000 0000000   0.0000 336.0000  6.30405269    13
CTC1_L_00588008-09
1 10078U 26744KZ  26075.70039352  .00000000  00000+0  00000-0 0  9997
2 10078  50.0000 210.0000 0000000   0.0000  12.0000  6.30405269    15
CTC1_L_00588008-10
1 10079U 25685AO  26075.70039352  .00000000  00000+0  00000-0 0  9991
2 10079  50.0000 210.0000 0000000   0.0000  48.0000  6.30405269    15
CTC1_L_00588009-01
1 10080U 25496LJ  26075.70039352  .00000000  00000+0  00000-0 0  9993
2 10080  50.0000 240.0000 0000000   0.0000  96.0000  6.30405269    13
CTC1_L_00588009-02
1 10081U 23334ME  26075.70039352  .00000000  00000+0  00000-0 0  9993
2 10081  50.0000 240.0000 0000000   0.0000 132.0000  6.30405269    15
CTC1_L_00588009-03
1 10082U 25455DV  26075.70039352  .00000000  00000+0  00000-0 0  9990
2 10082  50.0000 240.0000 0000000   0.0000 168.0000  6.30405269    15
CTC1_L_00588009-04
1 10083U 22097TY  26075.70039352  .00000000  00000+0  00000-0 0  9990
2 10083  50.0000 240.0000 0000000   0.0000 204.0000  6.30405269    17
CTC1_L_00588009-05
1 10084U 23860GQ  26075.70039352  .00000000  00000+0  00000-0 0  9990
2 10084  50.0000 240.0000 0000000   0.0000 240.0000  6.30405269    18
CTC1_L_00588009-06
1 10085U 25009LX  26075.70039352  .00000000  00000+0  00000-0 0  9998
2 10085  50.0000 240.0000 0000000   0.0000 276.0000  6.30405269    18
CTC1_L_00588009-07
1 10086U 26273IB  26075.70039352  .00000000  00000+0  00000-0 0  9993
2 10086  50.0000 240.0000 0000000   0.0000 312.0000  6.30405269    10
CTC1_L_00588009-08
1 10087U 25728BE  26075.70039352  .00000000  00000+0  00000-0 0  9998
2 10087  50.0000 240.0000 0000000   0.0000 348.0000  6.30405269    10
CTC1_L_00588009-09
1 10088U 26297JZ  26075.70039352  .00000000  00000+0  00000-0 0  9991
2 10088  50.0000 240.0000 0000000   0.0000  24.0000  6.30405269    12
CTC1_L_00588009-10
1 10089U 23330WO  26075.70039352  .00000000  00000+0  00000-0 0  9997
2 10089  50.0000 240.0000 0000000   0.0000  60.0000  6.30405269    13
CTC1_L_00588010-01
1 10090U 26814WQ  26075.70039352  .00000000  00000+0  00000-0 0  9999
2 10090  50.0000 270.0000 0000000   0.0000 108.0000  6.30405269    11
CTC1_L_00588010-02
1 10091U 24015IH  26075.70039352  .00000000  00000+0  00000-0 0  9991
2 10091  50.0000 270.0000 0000000   0.0000 144.0000  6.30405269    12
CTC1_L_00588010-03
1 10092U 26690ZW  26075.70039352  .00000000  00000+0  00000-0 0  9993
2 10092  50.0000 270.0000 0000000   0.0000 180.0000  6.30405269    13
CTC1_L_00588010-04
1 10093U 26926FI  26075.70039352  .00000000  00000+0  00000-0 0  9996
2 10093  50.0000 270.0000 0000000   0.0000 216.0000  6.30405269    14
CTC1_L_00588010-05
1 10094U 25021HE  26075.70039352  .00000000  00000+0  00000-0 0  9992
2 10094  50.0000 270.0000 0000000   0.0000 252.0000  6.30405269    15
CTC1_L_00588010-06
1 10095U 24700XC  26075.70039352  .00000000  00000+0  00000-0 0  9996
2 10095  50.0000 270.0000 0000000   0.0000 288.0000  6.30405269    15
CTC1_L_00588010-07
1 10096U 22412XO  26075.70039352  .00000000  00000+0  00000-0 0  9995
2 10096  50.0000 270.0000 0000000   0.0000 324.0000  6.30405269    17
CTC1_L_00588010-08
1 10097U 26214MI  26075.70039352  .00000000  00000+0  00000-0 0  9990
2 10097  50.0000 270.0000 0000000   0.0000   0.0000  6.30405269    19
CTC1_L_00588010-09
1 10098U 26125AK  26075.70039352  .00000000  00000+0  00000-0 0  9992
2 10098  50.0000 270.0000 0000000   0.0000  36.0000  6.30405269    19
CTC1_L_00588010-10
1 10099U 22462VN  26075.70039352  .00000000  00000+0  00000-0 0  9993
2 10099  50.0000 270.0000 0000000   0.0000  72.0000  6.30405269    10
CTC1_L_00588011-01
1 10100U 22083FO  26075.70039352  .00000000  00000+0  00000-0 0  9995
2 10100  50.0000 300.0000 0000000   0.0000 120.0000  6.30405269    11
CTC1_L_00588011-02
1 10101U 26055PO  26075.70039352  .00000000  00000+0  00000-0 0  9999
2 10101  50.0000 300.0000 0000000   0.0000 156.0000  6.30405269    11
CTC1_L_00588011-03
1 10102U 26610BA  26075.70039352  .00000000  00000+0  00000-0 0  9997
2 10102  50.0000 300.0000 0000000   0.0000 192.0000  6.30405269    12
CTC1_L_00588011-04
1 10103U 22098TL  26075.70039352  .00000000  00000+0  00000-0 0  9994
2 10103  50.0000 300.0000 0000000   0.0000 228.0000  6.30405269    13
CTC1_L_00588011-05
1 10104U 24600OB  26075.70039352  .00000000  00000+0  00000-0 0  9996
2 10104  50.0000 300.0000 0000000   0.0000 264.0000  6.30405269    14
CTC1_L_00588011-06
1 10105U 24915KB  26075.70039352  .00000000  00000+0  00000-0 0  9996
2 10105  50.0000 300.0000 0000000   0.0000 300.0000  6.30405269    16
CTC1_L_00588011-07
1 10106U 25943KS  26075.70039352  .00000000  00000+0  00000-0 0  9999
2 10106  50.0000 300.0000 0000000   0.0000 336.0000  6.30405269    16
CTC1_L_00588011-08
1 10107U 26689ZR  26075.70039352  .00000000  00000+0  00000-0 0  9998
2 10107  50.0000 300.0000 0000000   0.0000  12.0000  6.30405269    18
CTC1_L_00588011-09
1 10108U 23823UY  26075.70039352  .00000000  00000+0  00000-0 0  9996
2 10108  50.0000 300.0000 0000000   0.0000  48.0000  6.30405269    18
CTC1_L_00588011-10
1 10109U 22176RT  26075.70039352  .00000000  00000+0  00000-0 0  9997
2 10109  50.0000 300.0000 0000000   0.0000  84.0000  6.30405269    19
CTC1_L_00588012-01
1 10110U 23705WB  26075.70039352  .00000000  00000+0  00000-0 0  9998
2 10110  50.0000 330.0000 0000000   0.0000 132.0000  6.30405269    18
CTC1_L_00588012-02
1 10111U 23159RE  26075.70039352  .00000000  00000+0  00000-0 0  9992
2 10111  50.0000 330.0000 0000000   0.0000 168.0000  6.30405269    18
CTC1_L_00588012-03
1 10112U 25392YU  26075.70039352  .00000000  00000+0  00000-0 0  9994
2 10112  50.0000 330.0000 0000000   0.0000 204.0000  6.30405269    10
CTC1_L_00588012-04
1 10113U 23081JH  26075.70039352  .00000000  00000+0  00000-0 0  9998
2 10113  50.0000 330.0000 0000000   0.0000 240.0000  6.30405269    11
CTC1_L_00588012-05
1 10114U 24348WM  26075.70039352  .00000000  00000+0  00000-0 0  9996
2 10114  50.0000 330.0000 0000000   0.0000 276.0000  6.30405269    11
CTC1_L_00588012-06
1 10115U 24711BH  26075.70039352  .00000000  00000+0  00000-0 0  9991
2 10115  50.0000 330.0000 0000000   0.0000 312.0000  6.30405269    13
CTC1_L_00588012-07
1 10116U 24382U   26075.70039352  .00000000  00000+0  00000-0 0  9996
2 10116  50.0000 330.0000 0000000   0.0000 348.0000  6.30405269    13
CTC1_L_00588012-08
1 10117U 22655SA  26075.70039352  .00000000  00000+0  00000-0 0  9998
2 10117  50.0000 330.0000 0000000   0.0000  24.0000  6.30405269    15
CTC1_L_00588012-09
1 10118U 24244RB  26075.70039352  .00000000  00000+0  00000-0 0  9995
2 10118  50.0000 330.0000 0000000   0.0000  60.0000  6.30405269    16
CTC1_L_00588012-10
1 10119U 22105OT  26075.70039352  .00000000  00000+0  00000-0 0  9990
2 10119  50.0000 330.0000 0000000   0.0000  96.0000  6.30405269    16
